[{"OBJECT_NAME":"QPS-SAR-5 (TSUKUYOMI-I)","OBJECT_ID":"2023-196A","EPOCH":"2026-03-09T21:54:21.440160","MEAN_MOTION":15.20129575,"ECCENTRICITY":0.00250737,"INCLINATION":42.0101,"RA_OF_ASC_NODE":220.2642,"ARG_OF_PERICENTER":332.3475,"MEAN_ANOMALY":27.6024,"EPHEMERIS_TYPE":0,"CLASSIFICATION_TYPE":"U","NORAD_CAT_ID":58578,"ELEMENT_SET_NO":999,"REV_AT_EPOCH":12312,"BSTAR":0.00079111792,"MEAN_MOTION_DOT":0.00017399,"MEAN_MOTION_DDOT":0},{"OBJECT_NAME":"FLOCK 4H-28","OBJECT_ID":"2025-276BT","EPOCH":"2026-03-09T15:22:11.244288","MEAN_MOTION":15.18390524,"ECCENTRICITY":0.0004562,"INCLINATION":97.4246,"RA_OF_ASC_NODE":143.8079,"ARG_OF_PERICENTER":17.8651,"MEAN_ANOMALY":342.2742,"EPHEMERIS_TYPE":0,"CLASSIFICATION_TYPE":"U","NORAD_CAT_ID":66731,"ELEMENT_SET_NO":999,"REV_AT_EPOCH":1530,"BSTAR":0.00038299,"MEAN_MOTION_DOT":7.812e-5,"MEAN_MOTION_DDOT":0}]
